OBJECT_NAME,OBJECT_ID,EPOCH,MEAN_MOTION,ECCENTRICITY,INCLINATION,RA_OF_ASC_NODE,ARG_OF_PERICENTER,MEAN_ANOMALY,EPHEMERIS_TYPE,CLASSIFICATION_TYPE,NORAD_CAT_ID,ELEMENT_SET_NO,REV_AT_EPOCH,BSTAR,MEAN_MOTION_DOT,MEAN_MOTION_DDOT
LEMUR-2-THERMORAPTOR,2025-061D,2025-07-20T22:05:06.576000,15.10287375,0.0019303,97.529,176.5509,320.3276,39.6541,0,U,63354,999,1754,1.87E-04,3.01E-05,0
LEMUR-2-NEUROSPICY,2025-061E,2025-07-20T21:58:43.676256,15.10398777,0.0017127,97.5218,176.4368,325.0041,35.0061,0,U,63355,999,1754,1.64E-04,2.65E-05,0
LEMUR-2-TILLINFINITY,2025-061F,2025-07-20T20:58:33.857472,15.10899476,0.0018323,97.5203,176.4673,312.9734,46.9959,0,U,63356,999,1754,2.09E-04,3.43E-05,0
LEMUR-2-KREMPEL-BRO1,2025-061G,2025-07-20T21:09:29.604096,15.10798668,0.0018725,97.5201,176.4596,313.8901,46.0782,0,U,63357,999,1754,2.07E-04,3.39E-05,0
LEMUR-2-LANGER2SPACE,2025-061H,2025-07-20T21:44:50.635968,15.10476518,0.0016946,97.5204,176.4361,323.4754,36.5319,0,U,63358,999,1754,1.67E-04,2.70E-05,0
STARLINK-32840,2025-063A,2025-07-21T07:29:16.969344,15.39625019,0.0001429,53.1595,52.2409,82.9712,277.1455,0,U,63363,999,1924,8.48E-04,3.37E-04,0
STARLINK-33533,2025-063AA,2025-07-21T06:48:41.136480,15.3962736,0.0001797,53.1573,52.0475,85.272,274.849,0,U,63387,999,1917,5.27E-04,2.07E-04,0
STARLINK-33629,2025-063AB,2025-07-20T20:54:51.385248,15.39649023,0.0000824,53.1588,53.7368,142.1267,217.9796,0,U,63388,999,1920,1.00E-03,4.00E-04,0
STARLINK-33656,2025-063AC,2025-07-21T00:14:42.655488,15.39629869,0.0000873,53.1577,53.183,95.1754,264.9351,0,U,63389,999,1921,5.51E-04,2.17E-04,0
STARLINK-32543,2025-063B,2025-07-21T00:21:23.865120,15.39642596,0.0001024,53.1591,53.2268,78.6608,281.4512,0,U,63364,999,1921,6.84E-04,2.71E-04,0
STARLINK-33741,2025-063C,2025-07-21T06:55:50.867616,15.3962596,0.0001571,53.1582,52.0818,79.4616,280.6566,0,U,63365,999,1926,8.13E-04,3.23E-04,0
STARLINK-33742,2025-063D,2025-07-20T21:14:55.290624,15.39650779,0.000178,53.1563,53.827,87.5791,272.5417,0,U,63366,999,1915,8.93E-04,3.55E-04,0
STARLINK-33734,2025-063E,2025-07-21T07:28:29.682624,15.30193177,0.0001395,53.1605,57.1719,88.3455,271.7705,0,U,63367,999,1910,1.12E-03,3.28E-04,0
STARLINK-33578,2025-063F,2025-07-20T23:42:22.653216,15.39633247,0.0001161,53.1601,53.7616,83.2345,276.8792,0,U,63368,999,1913,8.46E-04,3.36E-04,0
STARLINK-33626,2025-063G,2025-07-21T07:35:49.712640,15.39624736,0.0000864,53.1609,51.5433,67.19,292.9196,0,U,63369,999,1919,1.18E-03,4.70E-04,0
STARLINK-33657,2025-063H,2025-07-20T23:07:58.849248,15.39634469,0.0000811,53.1615,53.607,96.5556,263.5541,0,U,63370,999,1913,6.58E-04,2.60E-04,0
STARLINK-33648,2025-063J,2025-07-21T07:15:25.610400,15.3963346,0.0001192,53.1593,52.1671,89.2742,270.8399,0,U,63371,999,1926,4.82E-04,1.89E-04,0
STARLINK-33614,2025-063K,2025-07-21T06:42:28.075104,15.39641677,0.0000407,53.1582,52.0236,53.2829,306.8213,0,U,63372,999,1925,1.07E-03,4.28E-04,0
STARLINK-33617,2025-063L,2025-07-20T23:28:22.804608,15.39630679,0.0000997,53.159,52.982,86.4074,273.7045,0,U,63373,999,1914,6.69E-04,2.65E-04,0
STARLINK-33618,2025-063M,2025-07-21T07:22:25.884192,15.39696234,0.0001406,53.1579,51.4825,79.4732,280.6431,0,U,63374,999,1926,1.41E-03,5.66E-04,0
STARLINK-33621,2025-063N,2025-07-20T21:01:32.719296,15.39648172,0.000082,53.159,53.7686,86.7114,273.3985,0,U,63375,999,1915,1.09E-03,4.33E-04,0
STARLINK-33539,2025-063P,2025-07-21T07:39:07.851168,15.30200592,0.0001366,53.161,57.2203,79.263,280.8525,0,U,63376,999,1911,4.27E-04,1.23E-04,0
STARLINK-33634,2025-063Q,2025-07-20T20:48:10.218816,15.39629083,0.000091,53.1566,53.7081,87.4669,272.644,0,U,63377,999,1920,5.46E-04,2.15E-04,0
STARLINK-33640,2025-063R,2025-07-21T07:09:04.805856,15.39629416,0.0001148,53.1589,51.4254,78.7593,281.354,0,U,63378,999,1926,5.41E-04,2.13E-04,0
STARLINK-33636,2025-063S,2025-07-21T06:41:59.733312,15.3963996,0.0001552,53.1605,52.0187,86.8669,273.2513,0,U,63379,999,1915,7.97E-04,3.16E-04,0
STARLINK-33653,2025-063T,2025-07-21T00:15:11.130336,15.39637715,0.000101,53.1604,53.1862,80.9558,279.1561,0,U,63380,999,1914,7.99E-04,3.17E-04,0
STARLINK-33643,2025-063U,2025-07-21T00:08:01.926240,15.3961556,0.0001163,53.1591,53.1522,79.643,280.4706,0,U,63381,999,1921,3.55E-04,1.38E-04,0
STARLINK-33633,2025-063V,2025-07-20T23:14:31.970112,15.3963052,0.0001188,53.1589,52.9214,73.4033,286.7102,0,U,63382,999,1911,4.96E-04,1.95E-04,0
STARLINK-33748,2025-063W,2025-07-20T23:33:50.024736,15.30193565,0.0001463,53.1596,59.3903,65.5258,294.5895,0,U,63383,999,1913,6.96E-04,2.03E-04,0
STARLINK-33658,2025-063X,2025-07-21T07:08:36.104640,15.39635661,0.0001145,53.1602,51.421,89.3333,270.7803,0,U,63384,999,1927,5.40E-04,2.13E-04,0
