LEMUR-2-THERMORAPTOR    
1 63354U 25061D   25201.92021500  .00003008  00000+0  18687-3 0  9997
2 63354  97.5290 176.5509 0019303 320.3276  39.6541 15.10287375 17541
LEMUR-2-NEUROSPICY      
1 63355U 25061E   25201.91578329  .00002645  00000+0  16445-3 0  9999
2 63355  97.5218 176.4368 0017127 325.0041  35.0061 15.10398777 17544
LEMUR-2-TILLINFINITY    
1 63356U 25061F   25201.87400298  .00003427  00000+0  20891-3 0  9993
2 63356  97.5203 176.4673 0018323 312.9734  46.9959 15.10899476 17540
LEMUR-2-KREMPEL-BRO1    
1 63357U 25061G   25201.88159264  .00003394  00000+0  20747-3 0  9992
2 63357  97.5201 176.4596 0018725 313.8901  46.0782 15.10798668 17541
LEMUR-2-LANGER2SPACE    
1 63358U 25061H   25201.90614162  .00002701  00000+0  16746-3 0  9994
2 63358  97.5204 176.4361 0016946 323.4754  36.5319 15.10476518 17548
STARLINK-32840          
1 63363U 25063A   25202.31200196  .00033676  00000+0  84802-3 0  9999
2 63363  53.1595  52.2409 0001429  82.9712 277.1455 15.39625019 19246
STARLINK-32543          
1 63364U 25063B   25202.01485955  .00027085  00000+0  68420-3 0  9990
2 63364  53.1591  53.2268 0001024  78.6608 281.4512 15.39642596 19212
STARLINK-33741          
1 63365U 25063C   25202.28878319  .00032272  00000+0  81320-3 0  9998
2 63365  53.1582  52.0818 0001571  79.4616 280.6566 15.39625960 19267
STARLINK-33742          
1 63366U 25063D   25201.88536216  .00035526  00000+0  89308-3 0  9990
2 63366  53.1563  53.8270 0001780  87.5791 272.5417 15.39650779 19153
STARLINK-33734          
1 63367U 25063E   25202.31145466  .00032827  00000+0  11158-2 0  9991
2 63367  53.1605  57.1719 0001395  88.3455 271.7705 15.30193177 19105
STARLINK-33578          
1 63368U 25063F   25201.98776219  .00033621  00000+0  84643-3 0  9993
2 63368  53.1601  53.7616 0001161  83.2345 276.8792 15.39633247 19134
STARLINK-33626          
1 63369U 25063G   25202.31654760  .00046997  00000+0  11775-2 0  9993
2 63369  53.1609  51.5433 0000864  67.1900 292.9196 15.39624736 19199
STARLINK-33657          
1 63370U 25063H   25201.96387557  .00026024  00000+0  65804-3 0  9994
2 63370  53.1615  53.6070 0000811  96.5556 263.5541 15.39634469 19139
STARLINK-33648          
1 63371U 25063J   25202.30237975  .00018923  00000+0  48166-3 0  9993
2 63371  53.1593  52.1671 0001192  89.2742 270.8399 15.39633460 19261
STARLINK-33614          
1 63372U 25063K   25202.27949161  .00042828  00000+0  10739-2 0  9992
2 63372  53.1582  52.0236 0000407  53.2829 306.8213 15.39641677 19254
STARLINK-33617          
1 63373U 25063L   25201.97804172  .00026476  00000+0  66935-3 0  9992
2 63373  53.1590  52.9820 0000997  86.4074 273.7045 15.39630679 19149
STARLINK-33618          
1 63374U 25063M   25202.30724403  .00056622  00000+0  14115-2 0  9997
2 63374  53.1579  51.4825 0001406  79.4732 280.6431 15.39696234 19263
STARLINK-33621          
1 63375U 25063N   25201.87607314  .00043327  00000+0  10860-2 0  9991
2 63375  53.1590  53.7686 0000820  86.7114 273.3985 15.39648172 19150
STARLINK-33539          
1 63376U 25063P   25202.31884087  .00012315  00000+0  42722-3 0  9992
2 63376  53.1610  57.2203 0001366  79.2630 280.8525 15.30200592 19114
STARLINK-33634          
1 63377U 25063Q   25201.86678494  .00021517  00000+0  54623-3 0  9992
2 63377  53.1566  53.7081 0000910  87.4669 272.6440 15.39629083 19201
STARLINK-33640          
1 63378U 25063R   25202.29797229  .00021300  00000+0  54083-3 0  9999
2 63378  53.1589  51.4254 0001148  78.7593 281.3540 15.39629416 19261
STARLINK-33636          
1 63379U 25063S   25202.27916358  .00031621  00000+0  79669-3 0  9998
2 63379  53.1605  52.0187 0001552  86.8669 273.2513 15.39639960 19159
STARLINK-33653          
1 63380U 25063T   25202.01054549  .00031701  00000+0  79875-3 0  9995
2 63380  53.1604  53.1862 0001010  80.9558 279.1561 15.39637715 19146
STARLINK-33643          
1 63381U 25063U   25202.00557785  .00013844  00000+0  35549-3 0  9993
2 63381  53.1591  53.1522 0001163  79.6430 280.4706 15.39615560 19216
STARLINK-33633          
1 63382U 25063V   25201.96842558  .00019498  00000+0  49601-3 0  9998
2 63382  53.1589  52.9214 0001188  73.4033 286.7102 15.39630520 19118
STARLINK-33748          
1 63383U 25063W   25201.98182899  .00020306  00000+0  69599-3 0  9994
2 63383  53.1596  59.3903 0001463  65.5258 294.5895 15.30193565 19132
STARLINK-33658          
1 63384U 25063X   25202.29764010  .00021258  00000+0  53967-3 0  9990
2 63384  53.1602  51.4210 0001145  89.3333 270.7803 15.39635661 19277
STARLINK-33533          
1 63387U 25063AA  25202.28380945  .00020727  00000+0  52661-3 0  9993
2 63387  53.1573  52.0475 0001797  85.2720 274.8490 15.39627360 19178
STARLINK-33629          
1 63388U 25063AB  25201.87142807  .00040025  00000+0  10044-2 0  9992
2 63388  53.1588  53.7368 0000824 142.1267 217.9796 15.39649023 19204
STARLINK-33656          
1 63389U 25063AC  25202.01021592  .00021715  00000+0  55112-3 0  9998
2 63389  53.1577  53.1830 0000873  95.1754 264.9351 15.39629869 19219
